[{"OBJECT_NAME":"STARLINK-6165","OBJECT_ID":"2023-090AC","EPOCH":"2026-03-09T22:14:46.541184","MEAN_MOTION":15.02538238,"ECCENTRICITY":0.00013725,"INCLINATION":43.0039,"RA_OF_ASC_NODE":272.9651,"ARG_OF_PERICENTER":278.6107,"MEAN_ANOMALY":81.458,"EPHEMERIS_TYPE":0,"CLASSIFICATION_TYPE":"U","NORAD_CAT_ID":57127,"ELEMENT_SET_NO":999,"REV_AT_EPOCH":15026,"BSTAR":3.7116568e-5,"MEAN_MOTION_DOT":2.98e-6,"MEAN_MOTION_DDOT":0},{"OBJECT_NAME":"UNKNOWN","OBJECT_ID":"","EPOCH":"2026-03-09T22:13:37.396992","MEAN_MOTION":14.94079285,"ECCENTRICITY":0.00368591,"INCLINATION":98.4007,"RA_OF_ASC_NODE":57.0532,"ARG_OF_PERICENTER":27.679,"MEAN_ANOMALY":332.6379,"EPHEMERIS_TYPE":0,"CLASSIFICATION_TYPE":"U","NORAD_CAT_ID":270309,"ELEMENT_SET_NO":999,"REV_AT_EPOCH":28085,"BSTAR":0.00073987035,"MEAN_MOTION_DOT":7.947e-5,"MEAN_MOTION_DDOT":0}]
